{"type": "FeatureCollection", "features": [ {"type": "Feature", "properties": {"norad_id": 31073, "name": "FENGYUN 1C DEB", "group": "fengyun-1c-debris", "lat": 12.433169170112746, "lon": 28.63821330011228, "alt_km": 810.5748902794949, "timestamp": "2025-12-22T09:53:37.681957+00:00", "meta": {"OBJECT_NAME": "FENGYUN 1C DEB", "OBJECT_ID": "1999-025BFT", "EPOCH": "2025-12-18T09:02:29.976576", "MEAN_MOTION": 14.248255, "ECCENTRICITY": 0.00450963, "INCLINATION": 99.2192, "RA_OF_ASC_NODE": 202.3511, "ARG_OF_PERICENTER": 269.7915, "MEAN_ANOMALY": 89.8095, "EPHEMERIS_TYPE": 0, "CLASSIFICATION_TYPE": "U", "NORAD_CAT_ID": 31073, "ELEMENT_SET_NO": 999, "REV_AT_EPOCH": 97163, "BSTAR": 0.0009478953, "MEAN_MOTION_DOT": 2.186e-05, "MEAN_MOTION_DDOT": 0}, "tle": {"line1": "1 31073U 99025BFT 25352.37673584  .00002186  00000+0  94790-3 0  9997", "line2": "2 31073  99.2192 202.3511 0045096 269.7915  89.8095 14.24825500971631"}}, "geometry": {"type": "Point", "coordinates": [28.63821330011228, 12.433169170112746]}}, {"type": "Feature", "properties": {"norad_id": 31074, "name": "FENGYUN 1C DEB", "group": "fengyun-1c-debris", "lat": 81.03150722952532, "lon": 179.89280179418108, "alt_km": 890.2893211746095, "timestamp": "2025-12-22T09:53:37.681967+00:00", "meta": {"OBJECT_NAME": "FENGYUN 1C DEB", "OBJECT_ID": "1999-025BFU", "EPOCH": "2025-12-18T17:10:14.920608", "MEAN_MOTION": 14.14282346, "ECCENTRICITY": 0.00866655, "INCLINATION": 98.9597, "RA_OF_ASC_NODE": 267.7307, "ARG_OF_PERICENTER": 248.9411, "MEAN_ANOMALY": 110.2477, "EPHEMERIS_TYPE": 0, "CLASSIFICATION_TYPE": "U", "NORAD_CAT_ID": 31074, "ELEMENT_SET_NO": 999, "REV_AT_EPOCH": 95664, "BSTAR": 0.001489856, "MEAN_MOTION_DOT": 2.905e-05, "MEAN_MOTION_DDOT": 0}, "tle": {"line1": "1 31074U 99025BFU 25352.71545047  .00002905  00000+0  14899-2 0  9998", "line2": "2 31074  98.9597 267.7307 0086665 248.9411 110.2477 14.14282346956643"}}, "geometry": {"type": "Point", "coordinates": [179.89280179418108, 81.03150722952532]}}, {"type": "Feature", "properties": {"norad_id": 31078, "name": "FENGYUN 1C DEB", "group": "fengyun-1c-debris", "lat": -26.469612312634464, "lon": 61.362404444362, "alt_km": 894.9382239951237, "timestamp": "2025-12-22T09:53:37.681977+00:00", "meta": {"OBJECT_NAME": "FENGYUN 1C DEB", "OBJECT_ID": "1999-025BFY", "EPOCH": "2025-12-15T10:54:33.357600", "MEAN_MOTION": 14.22084734, "ECCENTRICITY": 0.0117132, "INCLINATION": 98.8675, "RA_OF_ASC_NODE": 49.9086, "ARG_OF_PERICENTER": 141.0899, "MEAN_ANOMALY": 232.8229, "EPHEMERIS_TYPE": 0, "CLASSIFICATION_TYPE": "U", "NORAD_CAT_ID": 31078, "ELEMENT_SET_NO": 999, "REV_AT_EPOCH": 96931, "BSTAR": 0.00048192939, "MEAN_MOTION_DOT": 1.1e-05, "MEAN_MOTION_DDOT": 0}, "tle": {"line1": "1 31078U 99025BFY 25349.45455275  .00001100  00000+0  48193-3 0  9993", "line2": "2 31078  98.8675  49.9086 0117132 141.0899 232.8229 14.22084734969318"}}, "geometry": {"type": "Point", "coordinates": [61.362404444362, -26.469612312634464]}}, {"type": "Feature", "properties": {"norad_id": 31081, "name": "FENGYUN 1C DEB", "group": "fengyun-1c-debris", "lat": -76.67290534678443, "lon": 53.2093775881547, "alt_km": 871.1930718989006, "timestamp": "2025-12-22T09:53:37.681989+00:00", "meta": {"OBJECT_NAME": "FENGYUN 1C DEB", "OBJECT_ID": "1999-025BGB", "EPOCH": "2025-12-21T00:15:34.548192", "MEAN_MOTION": 14.06298807, "ECCENTRICITY": 0.00476856, "INCLINATION": 98.7696, "RA_OF_ASC_NODE": 11.188, "ARG_OF_PERICENTER": 207.4444, "MEAN_ANOMALY": 181.096, "EPHEMERIS_TYPE": 0, "CLASSIFICATION_TYPE": "U", "NORAD_CAT_ID": 31081, "ELEMENT_SET_NO": 999, "REV_AT_EPOCH": 96577, "BSTAR": -3.8280562e-05, "MEAN_MOTION_DOT": -1.06e-06, "MEAN_MOTION_DDOT": 0}, "tle": {"line1": "1 31081U 99025BGB 25355.01081653 -.00000106  00000+0 -38281-4 0  9996", "line2": "2 31081  98.7696  11.1880 0047685 207.4444 181.0960 14.06298807965778"}}, "geometry": {"type": "Point", "coordinates": [53.2093775881547, -76.67290534678443]}}, {"type": "Feature", "properties": {"norad_id": 31083, "name": "FENGYUN 1C DEB", "group": "fengyun-1c-debris", "lat": 66.67767661437567, "lon": -45.02528211118411, "alt_km": 701.0768282877434, "timestamp": "2025-12-22T09:53:37.682001+00:00", "meta": {"OBJECT_NAME": "FENGYUN 1C DEB", "OBJECT_ID": "1999-025BGD", "EPOCH": "2025-12-22T01:25:10.165152", "MEAN_MOTION": 14.62248478, "ECCENTRICITY": 0.0032016, "INCLINATION": 98.6468, "RA_OF_ASC_NODE": 113.9368, "ARG_OF_PERICENTER": 276.4951, "MEAN_ANOMALY": 137.6625, "EPHEMERIS_TYPE": 0, "CLASSIFICATION_TYPE": "U", "NORAD_CAT_ID": 31083, "ELEMENT_SET_NO": 999, "REV_AT_EPOCH": 97846, "BSTAR": 0.0027103, "MEAN_MOTION_DOT": 0.00013735, "MEAN_MOTION_DDOT": 0}, "tle": {"line1": "1 31083U 99025BGD 25356.05914543  .00013735  00000+0  27103-2 0  9995", "line2": "2 31083  98.6468 113.9368 0032016 276.4951 137.6625 14.62248478978465"}}, "geometry": {"type": "Point", "coordinates": [-45.02528211118411, 66.67767661437567]}}, {"type": "Feature", "properties": {"norad_id": 31085, "name": "FENGYUN 1C DEB", "group": "fengyun-1c-debris", "lat": -27.75664153695605, "lon": 12.738754504200248, "alt_km": 845.3117580819553, "timestamp": "2025-12-22T09:53:37.682019+00:00", "meta": {"OBJECT_NAME": "FENGYUN 1C DEB", "OBJECT_ID": "1999-025BGF", "EPOCH": "2025-12-21T12:54:39.896064", "MEAN_MOTION": 14.30314033, "ECCENTRICITY": 0.00869239, "INCLINATION": 98.9838, "RA_OF_ASC_NODE": 196.612, "ARG_OF_PERICENTER": 352.5414, "MEAN_ANOMALY": 36.8573, "EPHEMERIS_TYPE": 0, "CLASSIFICATION_TYPE": "U", "NORAD_CAT_ID": 31085, "ELEMENT_SET_NO": 999, "REV_AT_EPOCH": 97842, "BSTAR": 8.750679e-05, "MEAN_MOTION_DOT": 1.89e-06, "MEAN_MOTION_DDOT": 0}, "tle": {"line1": "1 31085U 99025BGF 25355.53796176  .00000189  00000+0  87507-4 0  9994", "line2": "2 31085  98.9838 196.6120 0086923 352.5414  36.8573 14.30314033978425"}}, "geometry": {"type": "Point", "coordinates": [12.738754504200248, -27.75664153695605]}}, {"type": "Feature", "properties": {"norad_id": 31087, "name": "FENGYUN 1C DEB", "group": "fengyun-1c-debris", "lat": -48.39069858900808, "lon": 25.84194472503568, "alt_km": 620.4763090906417, "timestamp": "2025-12-22T09:53:37.682029+00:00", "meta": {"OBJECT_NAME": "FENGYUN 1C DEB", "OBJECT_ID": "1999-025BGH", "EPOCH": "2025-12-22T00:23:09.730176", "MEAN_MOTION": 14.60389605, "ECCENTRICITY": 0.0171645, "INCLINATION": 98.1012, "RA_OF_ASC_NODE": 16.2256, "ARG_OF_PERICENTER": 261.6818, "MEAN_ANOMALY": 126.3315, "EPHEMERIS_TYPE": 0, "CLASSIFICATION_TYPE": "U", "NORAD_CAT_ID": 31087, "ELEMENT_SET_NO": 999, "REV_AT_EPOCH": 98905, "BSTAR": 0.0007678, "MEAN_MOTION_DOT": 4.519e-05, "MEAN_MOTION_DDOT": 0}, "tle": {"line1": "1 31087U 99025BGH 25356.01608484  .00004519  00000+0  76780-3 0  9995", "line2": "2 31087  98.1012  16.2256 0171645 261.6818 126.3315 14.60389605989054"}}, "geometry": {"type": "Point", "coordinates": [25.84194472503568, -48.39069858900808]}}, {"type": "Feature", "properties": {"norad_id": 31088, "name": "FENGYUN 1C DEB", "group": "fengyun-1c-debris", "lat": -15.125158079726827, "lon": -125.21908670569584, "alt_km": 819.6450889203079, "timestamp": "2025-12-22T09:53:37.682039+00:00", "meta": {"OBJECT_NAME": "FENGYUN 1C DEB", "OBJECT_ID": "1999-025BGJ", "EPOCH": "2025-12-20T03:21:12.353184", "MEAN_MOTION": 14.28750906, "ECCENTRICITY": 0.00280606, "INCLINATION": 99.4114, "RA_OF_ASC_NODE": 54.9006, "ARG_OF_PERICENTER": 39.8245, "MEAN_ANOMALY": 353.0532, "EPHEMERIS_TYPE": 0, "CLASSIFICATION_TYPE": "U", "NORAD_CAT_ID": 31088, "ELEMENT_SET_NO": 999, "REV_AT_EPOCH": 96655, "BSTAR": 0.0010684621, "MEAN_MOTION_DOT": 2.651e-05, "MEAN_MOTION_DDOT": 0}, "tle": {"line1": "1 31088U 99025BGJ 25354.13972631  .00002651  00000+0  10685-2 0  9991", "line2": "2 31088  99.4114  54.9006 0028060  39.8245 353.0532 14.28750906966555"}}, "geometry": {"type": "Point", "coordinates": [-125.21908670569584, -15.125158079726827]}}, {"type": "Feature", "properties": {"norad_id": 31089, "name": "FENGYUN 1C DEB", "group": "fengyun-1c-debris", "lat": -33.17079699093095, "lon": 143.9974838869777, "alt_km": 1056.5804518491805, "timestamp": "2025-12-22T09:53:37.682049+00:00", "meta": {"OBJECT_NAME": "FENGYUN 1C DEB", "OBJECT_ID": "1999-025BGK", "EPOCH": "2025-12-21T20:57:55.403424", "MEAN_MOTION": 13.88343099, "ECCENTRICITY": 0.0206277, "INCLINATION": 98.9502, "RA_OF_ASC_NODE": 137.5678, "ARG_OF_PERICENTER": 186.8776, "MEAN_ANOMALY": 327.1864, "EPHEMERIS_TYPE": 0, "CLASSIFICATION_TYPE": "U", "NORAD_CAT_ID": 31089, "ELEMENT_SET_NO": 999, "REV_AT_EPOCH": 68186, "BSTAR": 0.00069358, "MEAN_MOTION_DOT": 9.42e-06, "MEAN_MOTION_DDOT": 0}, "tle": {"line1": "1 31089U 99025BGK 25355.87355791  .00000942  00000+0  69358-3 0  9999", "line2": "2 31089  98.9502 137.5678 0206277 186.8776 327.1864 13.88343099681868"}}, "geometry": {"type": "Point", "coordinates": [143.9974838869777, -33.17079699093095]}}, {"type": "Feature", "properties": {"norad_id": 31090, "name": "FENGYUN 1C DEB", "group": "fengyun-1c-debris", "lat": 61.336721077227175, "lon": 85.7054252864009, "alt_km": 426.8543276214241, "timestamp": "2025-12-22T09:53:37.682059+00:00", "meta": {"OBJECT_NAME": "FENGYUN 1C DEB", "OBJECT_ID": "1999-025BGL", "EPOCH": "2025-12-21T13:16:32.539296", "MEAN_MOTION": 15.34304432, "ECCENTRICITY": 0.0054242, "INCLINATION": 98.984, "RA_OF_ASC_NODE": 101.4841, "ARG_OF_PERICENTER": 102.0738, "MEAN_ANOMALY": 258.6586, "EPHEMERIS_TYPE": 0, "CLASSIFICATION_TYPE": "U", "NORAD_CAT_ID": 31090, "ELEMENT_SET_NO": 999, "REV_AT_EPOCH": 973, "BSTAR": 0.0014098, "MEAN_MOTION_DOT": 0.00049266, "MEAN_MOTION_DDOT": 0}, "tle": {"line1": "1 31090U 99025BGL 25355.55315439  .00049266  00000+0  14098-2 0  9993", "line2": "2 31090  98.9840 101.4841 0054242 102.0738 258.6586 15.34304432  9738"}}, "geometry": {"type": "Point", "coordinates": [85.7054252864009, 61.336721077227175]}}]}